start=new Date('2023-01-30T00:00:00.000Z').valueOf();
sats=[{"SITE":"AFETR","FILE":"3765015","RA_OF_ASC_NODE":"136.9260","TIME_SYSTEM":"UTC","CENTER_NAME":"EARTH","MEAN_ELEMENT_THEORY":"SGP4","REF_FRAME":"TEME","INCLINATION":"53.0561","APOAPSIS":"548.013","DECAY_DATE":null,"PERIAPSIS":"546.459","ARG_OF_PERICENTER":"80.9330","TLE_LINE2":"2 48283  53.0561 136.9260 0001122  80.9330 279.1786 15.06392763 97247","OBJECT_ID":"2021-036H","SEMIMAJOR_AXIS":"6925.371","REV_AT_EPOCH":"9724","NORAD_CAT_ID":"48283","LAUNCH_DATE":"2021-04-29","EPOCH":"2023-01-29T16:02:24.074016","BSTAR":"0.00002052900000","MEAN_MOTION":"15.06392763","ELEMENT_SET_NO":"999","GP_ID":"223955377","COUNTRY_CODE":"US","PERIOD":"95.593","MEAN_MOTION_DOT":"0.00000024","OBJECT_TYPE":"PAYLOAD","RCS_SIZE":"LARGE","MEAN_MOTION_DDOT":"0.0000000000000","ECCENTRICITY":"0.00011220","TLE_LINE1":"1 48283U 21036H   23029.66833419  .00000024  00000-0  20529-4 0  9991","OBJECT_NAME":"STARLINK-2516","MEAN_ANOMALY":"279.1786","EPHEMERIS_TYPE":"0","CLASSIFICATION_TYPE":"U"},{"CLASSIFICATION_TYPE":"U","MEAN_ANOMALY":"289.1655","EPHEMERIS_TYPE":"0","OBJECT_NAME":"STARLINK-2564","TLE_LINE1":"1 48284U 21036J   23029.73098914  .00000156  00000-0  29361-4 0  9992","ECCENTRICITY":"0.00011130","MEAN_MOTION_DDOT":"0.0000000000000","RCS_SIZE":"LARGE","OBJECT_TYPE":"PAYLOAD","MEAN_MOTION_DOT":"0.00000156","PERIOD":"95.592","COUNTRY_CODE":"US","GP_ID":"223955627","ELEMENT_SET_NO":"999","MEAN_MOTION":"15.06399515","BSTAR":"0.00002936100000","EPOCH":"2023-01-29T17:32:37.461696","LAUNCH_DATE":"2021-04-29","NORAD_CAT_ID":"48284","REV_AT_EPOCH":"9724","SEMIMAJOR_AXIS":"6925.350","TLE_LINE2":"2 48284  53.0547 136.6546 0001113  70.9455 289.1655 15.06399515 97241","OBJECT_ID":"2021-036J","PERIAPSIS":"546.444","ARG_OF_PERICENTER":"70.9455","DECAY_DATE":null,"APOAPSIS":"547.986","REF_FRAME":"TEME","INCLINATION":"53.0547","TIME_SYSTEM":"UTC","MEAN_ELEMENT_THEORY":"SGP4","CENTER_NAME":"EARTH","RA_OF_ASC_NODE":"136.6546","FILE":"3765015","SITE":"AFETR"},{"ECCENTRICITY":"0.00010230","TLE_LINE1":"1 48285U 21036K   23029.72635909  .00000950  00000-0  82675-4 0  9992","OBJECT_NAME":"STARLINK-2548","MEAN_ANOMALY":"263.7121","EPHEMERIS_TYPE":"0","CLASSIFICATION_TYPE":"U","OBJECT_TYPE":"PAYLOAD","RCS_SIZE":"LARGE","MEAN_MOTION_DDOT":"0.0000000000000","COUNTRY_CODE":"US","PERIOD":"95.592","MEAN_MOTION_DOT":"0.00000950","BSTAR":"0.00008267500000","MEAN_MOTION":"15.06396592","GP_ID":"223956379","ELEMENT_SET_NO":"999","TLE_LINE2":"2 48285  53.0538 136.6663 0001023  96.3984 263.7121 15.06396592 97249","OBJECT_ID":"2021-036K","REV_AT_EPOCH":"9724","SEMIMAJOR_AXIS":"6925.359","NORAD_CAT_ID":"48285","LAUNCH_DATE":"2021-04-29","EPOCH":"2023-01-29T17:25:57.425376","DECAY_DATE":null,"ARG_OF_PERICENTER":"96.3984","PERIAPSIS":"546.516","REF_FRAME":"TEME","INCLINATION":"53.0538","APOAPSIS":"547.932","SITE":"AFETR","FILE":"3765015","RA_OF_ASC_NODE":"136.6663","CENTER_NAME":"EARTH","MEAN_ELEMENT_THEORY":"SGP4","TIME_SYSTEM":"UTC"},{"OBJECT_NAME":"STARLINK-2547","TLE_LINE1":"1 48286U 21036L   23029.72361614 -.00002639  00000-0 -15835-3 0  9993","CLASSIFICATION_TYPE":"U","MEAN_ANOMALY":"274.9251","EPHEMERIS_TYPE":"0","ECCENTRICITY":"0.00011680","MEAN_MOTION_DDOT":"0.0000000000000","OBJECT_TYPE":"PAYLOAD","RCS_SIZE":"LARGE","PERIOD":"95.592","MEAN_MOTION_DOT":"-0.00002639","COUNTRY_CODE":"US","GP_ID":"223956130","ELEMENT_SET_NO":"999","MEAN_MOTION":"15.06398804","BSTAR":"-0.00015835000000","EPOCH":"2023-01-29T17:22:00.434496","SEMIMAJOR_AXIS":"6925.352","REV_AT_EPOCH":"9724","OBJECT_ID":"2021-036L","TLE_LINE2":"2 48286  53.0526 136.6795 0001168  85.1871 274.9251 15.06398804 97240","LAUNCH_DATE":"2021-04-29","NORAD_CAT_ID":"48286","PERIAPSIS":"546.408","ARG_OF_PERICENTER":"85.1871","DECAY_DATE":null,"APOAPSIS":"548.026","INCLINATION":"53.0526","REF_FRAME":"TEME","CENTER_NAME":"EARTH","TIME_SYSTEM":"UTC","MEAN_ELEMENT_THEORY":"SGP4","RA_OF_ASC_NODE":"136.6795","SITE":"AFETR","FILE":"3765015"},{"OBJECT_TYPE":"PAYLOAD","RCS_SIZE":"LARGE","MEAN_MOTION_DDOT":"0.0000000000000","ECCENTRICITY":"0.00012490","TLE_LINE1":"1 48287U 21036M   23029.71992609  .00001517  00000-0  12068-3 0  9994","OBJECT_NAME":"STARLINK-2566","MEAN_ANOMALY":"264.7943","EPHEMERIS_TYPE":"0","CLASSIFICATION_TYPE":"U","BSTAR":"0.00012068000000","MEAN_MOTION":"15.06402472","GP_ID":"223954878","ELEMENT_SET_NO":"999","COUNTRY_CODE":"US","PERIOD":"95.592","MEAN_MOTION_DOT":"0.00001517","DECAY_DATE":null,"ARG_OF_PERICENTER":"95.3188","PERIAPSIS":"546.341","OBJECT_ID":"2021-036M","TLE_LINE2":"2 48287  53.0538 136.7072 0001249  95.3188 264.7943 15.06402472 97249","REV_AT_EPOCH":"9724","SEMIMAJOR_AXIS":"6925.341","NORAD_CAT_ID":"48287","LAUNCH_DATE":"2021-04-29","EPOCH":"2023-01-29T17:16:41.614176","SITE":"AFETR","FILE":"3765015","RA_OF_ASC_NODE":"136.7072","CENTER_NAME":"EARTH","MEAN_ELEMENT_THEORY":"SGP4","TIME_SYSTEM":"UTC","INCLINATION":"53.0538","REF_FRAME":"TEME","APOAPSIS":"548.071"},{"ECCENTRICITY":"0.00014270","CLASSIFICATION_TYPE":"U","MEAN_ANOMALY":"281.8226","EPHEMERIS_TYPE":"0","OBJECT_NAME":"STARLINK-2562","TLE_LINE1":"1 48288U 21036N   23029.71529944 -.00000232  00000-0  33253-5 0  9998","RCS_SIZE":"LARGE","OBJECT_TYPE":"PAYLOAD","MEAN_MOTION_DDOT":"0.0000000000000","COUNTRY_CODE":"US","MEAN_MOTION_DOT":"-0.00000232","PERIOD":"95.592","BSTAR":"0.00000332530000","MEAN_MOTION":"15.06398095","GP_ID":"223955128","ELEMENT_SET_NO":"999","LAUNCH_DATE":"2021-04-29","NORAD_CAT_ID":"48288","SEMIMAJOR_AXIS":"6925.354","REV_AT_EPOCH":"9724","TLE_LINE2":"2 48288  53.0537 136.7170 0001427  78.2923 281.8226 15.06398095 97242","OBJECT_ID":"2021-036N","EPOCH":"2023-01-29T17:10:01.871616","DECAY_DATE":null,"PERIAPSIS":"546.231","ARG_OF_PERICENTER":"78.2923","APOAPSIS":"548.208","REF_FRAME":"TEME","INCLINATION":"53.0537","FILE":"3765015","SITE":"AFETR","MEAN_ELEMENT_THEORY":"SGP4","TIME_SYSTEM":"UTC","CENTER_NAME":"EARTH","RA_OF_ASC_NODE":"136.7170"},{"EPOCH":"2023-01-29T17:06:04.831488","REV_AT_EPOCH":"9724","SEMIMAJOR_AXIS":"6925.341","OBJECT_ID":"2021-036P","TLE_LINE2":"2 48289  53.0532 136.7373 0001248  73.2762 286.8364 15.06402629 97247","LAUNCH_DATE":"2021-04-29","NORAD_CAT_ID":"48289","PERIAPSIS":"546.341","ARG_OF_PERICENTER":"73.2762","DECAY_DATE":null,"APOAPSIS":"548.070","INCLINATION":"53.0532","REF_FRAME":"TEME","TIME_SYSTEM":"UTC","CENTER_NAME":"EARTH","MEAN_ELEMENT_THEORY":"SGP4","RA_OF_ASC_NODE":"136.7373","SITE":"AFETR","FILE":"3765015","OBJECT_NAME":"STARLINK-2545","TLE_LINE1":"1 48289U 21036P   23029.71255592  .00000878  00000-0  77814-4 0  9999","CLASSIFICATION_TYPE":"U","EPHEMERIS_TYPE":"0","MEAN_ANOMALY":"286.8364","ECCENTRICITY":"0.00012480","MEAN_MOTION_DDOT":"0.0000000000000","OBJECT_TYPE":"PAYLOAD","RCS_SIZE":"LARGE","PERIOD":"95.592","MEAN_MOTION_DOT":"0.00000878","COUNTRY_CODE":"US","ELEMENT_SET_NO":"999","GP_ID":"223955880","BSTAR":"0.00007781400000","MEAN_MOTION":"15.06402629"},{"OBJECT_ID":"2021-036Q","TLE_LINE2":"2 48290  53.0551 136.7402 0001407  81.4547 278.6601 15.06398889 97247","SEMIMAJOR_AXIS":"6925.352","REV_AT_EPOCH":"9724","NORAD_CAT_ID":"48290","LAUNCH_DATE":"2021-04-29","EPOCH":"2023-01-29T17:00:46.533888","DECAY_DATE":null,"PERIAPSIS":"546.243","ARG_OF_PERICENTER":"81.4547","INCLINATION":"53.0551","REF_FRAME":"TEME","APOAPSIS":"548.191","SITE":"AFETR","FILE":"3765015","RA_OF_ASC_NODE":"136.7402","MEAN_ELEMENT_THEORY":"SGP4","CENTER_NAME":"EARTH","TIME_SYSTEM":"UTC","ECCENTRICITY":"0.00014070","TLE_LINE1":"1 48290U 21036Q   23029.70887192  .00000359  00000-0  43019-4 0  9991","OBJECT_NAME":"STARLINK-2540","EPHEMERIS_TYPE":"0","MEAN_ANOMALY":"278.6601","CLASSIFICATION_TYPE":"U","OBJECT_TYPE":"PAYLOAD","RCS_SIZE":"LARGE","MEAN_MOTION_DDOT":"0.0000000000000","COUNTRY_CODE":"US","PERIOD":"95.592","MEAN_MOTION_DOT":"0.00000359","MEAN_MOTION":"15.06398889","BSTAR":"0.00004301900000","ELEMENT_SET_NO":"999","GP_ID":"223956630"},{"APOAPSIS":"548.153","REF_FRAME":"TEME","INCLINATION":"53.0556","MEAN_ELEMENT_THEORY":"SGP4","TIME_SYSTEM":"UTC","CENTER_NAME":"EARTH","RA_OF_ASC_NODE":"136.7558","FILE":"3765015","SITE":"AFETR","EPOCH":"2023-01-29T16:55:28.037568","LAUNCH_DATE":"2021-04-29","NORAD_CAT_ID":"48291","REV_AT_EPOCH":"9724","SEMIMAJOR_AXIS":"6925.357","TLE_LINE2":"2 48291  53.0556 136.7558 0001344  89.1338 270.9805 15.06397142 97240","OBJECT_ID":"2021-036R","ARG_OF_PERICENTER":"89.1338","PERIAPSIS":"546.292","DECAY_DATE":null,"MEAN_MOTION_DOT":"0.00000415","PERIOD":"95.592","COUNTRY_CODE":"US","ELEMENT_SET_NO":"999","GP_ID":"223955378","BSTAR":"0.00004673900000","MEAN_MOTION":"15.06397142","CLASSIFICATION_TYPE":"U","MEAN_ANOMALY":"270.9805","EPHEMERIS_TYPE":"0","OBJECT_NAME":"STARLINK-2555","TLE_LINE1":"1 48291U 21036R   23029.70518562  .00000415  00000-0  46739-4 0  9999","ECCENTRICITY":"0.00013440","MEAN_MOTION_DDOT":"0.0000000000000","RCS_SIZE":"LARGE","OBJECT_TYPE":"PAYLOAD"},{"BSTAR":"-0.00000687540000","MEAN_MOTION":"15.06391836","ELEMENT_SET_NO":"999","GP_ID":"223955628","COUNTRY_CODE":"US","PERIOD":"95.593","MEAN_MOTION_DOT":"-0.00000384","OBJECT_TYPE":"PAYLOAD","RCS_SIZE":"LARGE","MEAN_MOTION_DDOT":"0.0000000000000","ECCENTRICITY":"0.00012090","TLE_LINE1":"1 48292U 21036S   23029.71626850 -.00000384  00000-0 -68754-5 0  9990","OBJECT_NAME":"STARLINK-2542","EPHEMERIS_TYPE":"0","MEAN_ANOMALY":"265.2845","CLASSIFICATION_TYPE":"U","SITE":"AFETR","FILE":"3765015","RA_OF_ASC_NODE":"136.8891","TIME_SYSTEM":"UTC","MEAN_ELEMENT_THEORY":"SGP4","CENTER_NAME":"EARTH","REF_FRAME":"TEME","INCLINATION":"53.0525","APOAPSIS":"548.076","DECAY_DATE":null,"ARG_OF_PERICENTER":"94.8282","PERIAPSIS":"546.401","OBJECT_ID":"2021-036S","TLE_LINE2":"2 48292  53.0525 136.8891 0001209  94.8282 265.2845 15.06391836 97244","SEMIMAJOR_AXIS":"6925.374","REV_AT_EPOCH":"9724","NORAD_CAT_ID":"48292","LAUNCH_DATE":"2021-04-29","EPOCH":"2023-01-29T17:11:25.598400"}];
